{
    "links": {
        "self": "http://www.neowsapp.com/rest/v1/neo/3621703?api_key=iIulBulltgU6a56xZRHN4H3l9WmuAYTsLGpBGhQ2"
    },
    "id": "3621703",
    "neo_reference_id": "3621703",
    "name": "(2012 YR3)",
    "designation": "2012 YR3",
    "nasa_jpl_url": "http://ssd.jpl.nasa.gov/sbdb.cgi?sstr=3621703",
    "absolute_magnitude_h": 26.3,
    "estimated_diameter": {
        "kilometers": {
            "estimated_diameter_min": 0.0146067964,
            "estimated_diameter_max": 0.0326617897
        },
        "meters": {
            "estimated_diameter_min": 14.6067964271,
            "estimated_diameter_max": 32.6617897446
        },
        "miles": {
            "estimated_diameter_min": 0.0090762397,
            "estimated_diameter_max": 0.020295089
        },
        "feet": {
            "estimated_diameter_min": 47.92256199,
            "estimated_diameter_max": 107.1581062656
        }
    },
    "is_potentially_hazardous_asteroid": false,
    "close_approach_data": [
        {
            "close_approach_date": "2012-12-17",
            "close_approach_date_full": "2012-Dec-17 20:37",
            "epoch_date_close_approach": 1355776620000,
            "relative_velocity": {
                "kilometers_per_second": "11.3172230326",
                "kilometers_per_hour": "40742.002917266",
                "miles_per_hour": "25315.4962015646"
            },
            "miss_distance": {
                "astronomical": "0.0157857622",
                "lunar": "6.1406614958",
                "kilometers": "2361516.401446514",
                "miles": "1467378.2486253332"
            },
            "orbiting_body": "Earth"
        }
    ],
    "orbital_data": {
        "orbit_id": "4",
        "orbit_determination_date": "2017-04-06 08:47:31",
        "first_observation_date": "2012-12-21",
        "last_observation_date": "2012-12-23",
        "data_arc_in_days": 2,
        "observations_used": 18,
        "orbit_uncertainty": "8",
        "minimum_orbit_intersection": ".010294",
        "jupiter_tisserand_invariant": "2.940",
        "epoch_osculation": "2456284.5",
        "eccentricity": ".6629220296271634",
        "semi_major_axis": "2.809035157757362",
        "inclination": "8.555790333140248",
        "ascending_node_longitude": "91.63484431404051",
        "orbital_period": "1719.626737668997",
        "perihelion_distance": ".9468638696827926",
        "perihelion_argument": "329.7363404810737",
        "aphelion_distance": "4.671206445831932",
        "perihelion_time": "2456260.558544196120",
        "mean_anomaly": "5.012090066173312",
        "mean_motion": ".2093477567626043",
        "equinox": "J2000",
        "orbit_class": {
            "orbit_class_type": "APO",
            "orbit_class_description": "Near-Earth asteroid orbits which cross the Earth’s orbit similar to that of 1862 Apollo",
            "orbit_class_range": "a (semi-major axis) > 1.0 AU; q (perihelion) < 1.017 AU"
        }
    },
    "is_sentry_object": false
}